start=new Date('2021-08-23T00:00:00.000Z').valueOf();
sats=[{"SEMIMAJOR_AXIS":"6925.373","MEAN_MOTION":"15.06391978","TLE_LINE1":"1 46570U 20070AQ  21234.77444149  .00000724  00000-0  67525-4 0  9995","CENTER_NAME":"EARTH","PERIAPSIS":"545.972","BSTAR":"0.00006752500000","INCLINATION":"53.0539","RCS_SIZE":"LARGE","ELEMENT_SET_NO":"999","TLE_LINE2":"2 46570  53.0539  48.2650 0001828 101.1743 258.9452 15.06391978 49591","MEAN_MOTION_DOT":"0.00000724","GP_ID":"183272639","OBJECT_ID":"2020-070AQ","DECAY_DATE":null,"EPHEMERIS_TYPE":"0","COUNTRY_CODE":"US","REV_AT_EPOCH":"4959","MEAN_ANOMALY":"258.9452","REF_FRAME":"TEME","MEAN_MOTION_DDOT":"0.0000000000000","EPOCH":"2021-08-22T18:35:11.744736","SITE":"AFETR","FILE":"3101563","LAUNCH_DATE":"2020-10-06","ECCENTRICITY":"0.00018280","CLASSIFICATION_TYPE":"U","NORAD_CAT_ID":"46570","OBJECT_NAME":"STARLINK-1748","ARG_OF_PERICENTER":"101.1743","APOAPSIS":"548.504","OBJECT_TYPE":"PAYLOAD","TIME_SYSTEM":"UTC","MEAN_ELEMENT_THEORY":"SGP4","PERIOD":"95.593","RA_OF_ASC_NODE":"48.2650"},{"OBJECT_ID":"2020-070AR","GP_ID":"183272890","TLE_LINE2":"2 46571  53.0546  47.8505 0001940  99.4150 260.7058 15.06394037 49615","MEAN_MOTION_DOT":"-0.00000597","ELEMENT_SET_NO":"999","RCS_SIZE":"LARGE","MEAN_ANOMALY":"260.7058","REV_AT_EPOCH":"4961","EPHEMERIS_TYPE":"0","COUNTRY_CODE":"US","DECAY_DATE":null,"TLE_LINE1":"1 46571U 20070AR  21234.87028191 -.00000597  00000-0 -21198-4 0  9998","MEAN_MOTION":"15.06394037","SEMIMAJOR_AXIS":"6925.367","PERIAPSIS":"545.888","INCLINATION":"53.0546","BSTAR":"-0.00002119800000","CENTER_NAME":"EARTH","TIME_SYSTEM":"UTC","OBJECT_TYPE":"PAYLOAD","APOAPSIS":"548.575","ARG_OF_PERICENTER":"99.4150","OBJECT_NAME":"STARLINK-1753","NORAD_CAT_ID":"46571","RA_OF_ASC_NODE":"47.8505","PERIOD":"95.593","MEAN_ELEMENT_THEORY":"SGP4","FILE":"3101563","SITE":"AFETR","EPOCH":"2021-08-22T20:53:12.357024","MEAN_MOTION_DDOT":"0.0000000000000","REF_FRAME":"TEME","CLASSIFICATION_TYPE":"U","ECCENTRICITY":"0.00019400","LAUNCH_DATE":"2020-10-06"},{"DECAY_DATE":null,"EPHEMERIS_TYPE":"0","COUNTRY_CODE":"US","REV_AT_EPOCH":"4932","MEAN_ANOMALY":"271.5310","RCS_SIZE":"LARGE","ELEMENT_SET_NO":"999","TLE_LINE2":"2 46572  53.0552  67.9848 0002134  88.5924 271.5310 15.06396583 49327","MEAN_MOTION_DOT":"0.00000807","GP_ID":"183271638","OBJECT_ID":"2020-070AS","CENTER_NAME":"EARTH","BSTAR":"0.00007308400000","PERIAPSIS":"545.746","INCLINATION":"53.0552","SEMIMAJOR_AXIS":"6925.359","MEAN_MOTION":"15.06396583","TLE_LINE1":"1 46572U 20070AS  21234.83895057  .00000807  00000-0  73084-4 0  9991","MEAN_ELEMENT_THEORY":"SGP4","PERIOD":"95.592","RA_OF_ASC_NODE":"67.9848","OBJECT_NAME":"STARLINK-1531","NORAD_CAT_ID":"46572","ARG_OF_PERICENTER":"88.5924","APOAPSIS":"548.702","TIME_SYSTEM":"UTC","OBJECT_TYPE":"PAYLOAD","LAUNCH_DATE":"2020-10-06","ECCENTRICITY":"0.00021340","CLASSIFICATION_TYPE":"U","MEAN_MOTION_DDOT":"0.0000000000000","REF_FRAME":"TEME","EPOCH":"2021-08-22T20:08:05.329248","SITE":"AFETR","FILE":"3101563"},{"CENTER_NAME":"EARTH","PERIAPSIS":"546.031","BSTAR":"-0.00006502200000","INCLINATION":"53.0548","MEAN_MOTION":"15.06391001","SEMIMAJOR_AXIS":"6925.376","TLE_LINE1":"1 46573U 20070AT  21234.88272220 -.00001250  00000-0 -65022-4 0  9996","DECAY_DATE":null,"MEAN_ANOMALY":"263.3936","REV_AT_EPOCH":"4954","COUNTRY_CODE":"US","EPHEMERIS_TYPE":"0","MEAN_MOTION_DOT":"-0.00001250","TLE_LINE2":"2 46573  53.0548  52.7833 0001747  96.7252 263.3936 15.06391001 49540","RCS_SIZE":"LARGE","ELEMENT_SET_NO":"999","OBJECT_ID":"2020-070AT","GP_ID":"183271888","CLASSIFICATION_TYPE":"U","ECCENTRICITY":"0.00017470","LAUNCH_DATE":"2020-10-06","SITE":"AFETR","EPOCH":"2021-08-22T21:11:07.198080","REF_FRAME":"TEME","MEAN_MOTION_DDOT":"0.0000000000000","FILE":"3101563","RA_OF_ASC_NODE":"52.7833","PERIOD":"95.593","MEAN_ELEMENT_THEORY":"SGP4","ARG_OF_PERICENTER":"96.7252","NORAD_CAT_ID":"46573","OBJECT_NAME":"STARLINK-1650","OBJECT_TYPE":"PAYLOAD","TIME_SYSTEM":"UTC","APOAPSIS":"548.451"},{"REV_AT_EPOCH":"4954","MEAN_ANOMALY":"268.0197","EPHEMERIS_TYPE":"0","COUNTRY_CODE":"US","DECAY_DATE":null,"GP_ID":"183272139","OBJECT_ID":"2020-070AU","MEAN_MOTION_DOT":"0.00000963","TLE_LINE2":"2 46574  53.0547  52.8597 0001870  92.1006 268.0197 15.06395868 49548","RCS_SIZE":"LARGE","ELEMENT_SET_NO":"999","PERIAPSIS":"545.931","BSTAR":"0.00008353400000","INCLINATION":"53.0547","CENTER_NAME":"EARTH","TLE_LINE1":"1 46574U 20070AU  21234.86797939  .00000963  00000-0  83534-4 0  9990","MEAN_MOTION":"15.06395868","SEMIMAJOR_AXIS":"6925.361","RA_OF_ASC_NODE":"52.8597","MEAN_ELEMENT_THEORY":"SGP4","PERIOD":"95.592","TIME_SYSTEM":"UTC","OBJECT_TYPE":"PAYLOAD","APOAPSIS":"548.521","ARG_OF_PERICENTER":"92.1006","OBJECT_NAME":"STARLINK-1660","NORAD_CAT_ID":"46574","CLASSIFICATION_TYPE":"U","LAUNCH_DATE":"2020-10-06","ECCENTRICITY":"0.00018700","FILE":"3101563","EPOCH":"2021-08-22T20:49:53.419296","SITE":"AFETR","MEAN_MOTION_DDOT":"0.0000000000000","REF_FRAME":"TEME"},{"REF_FRAME":"TEME","MEAN_MOTION_DDOT":"0.0000000000000","EPOCH":"2021-08-22T20:38:34.510560","SITE":"AFETR","FILE":"3101563","LAUNCH_DATE":"2020-10-06","ECCENTRICITY":"0.00016110","CLASSIFICATION_TYPE":"U","NORAD_CAT_ID":"46575","OBJECT_NAME":"STARLINK-1675","ARG_OF_PERICENTER":"103.4740","APOAPSIS":"548.353","OBJECT_TYPE":"PAYLOAD","TIME_SYSTEM":"UTC","MEAN_ELEMENT_THEORY":"SGP4","PERIOD":"95.593","RA_OF_ASC_NODE":"27.8939","SEMIMAJOR_AXIS":"6925.372","MEAN_MOTION":"15.06392307","TLE_LINE1":"1 46575U 20070AV  21234.86012165 -.00000787  00000-0 -33915-4 0  9996","CENTER_NAME":"EARTH","BSTAR":"-0.00003391500000","PERIAPSIS":"546.121","INCLINATION":"53.0575","RCS_SIZE":"LARGE","ELEMENT_SET_NO":"999","TLE_LINE2":"2 46575  53.0575  27.8939 0001611 103.4740 256.6429 15.06392307 49889","MEAN_MOTION_DOT":"-0.00000787","GP_ID":"183272390","OBJECT_ID":"2020-070AV","DECAY_DATE":null,"EPHEMERIS_TYPE":"0","COUNTRY_CODE":"US","REV_AT_EPOCH":"4988","MEAN_ANOMALY":"256.6429"},{"CLASSIFICATION_TYPE":"U","ECCENTRICITY":"0.00019250","LAUNCH_DATE":"2020-10-06","SITE":"AFETR","EPOCH":"2021-08-22T20:39:15.529824","MEAN_MOTION_DDOT":"0.0000000000000","REF_FRAME":"TEME","FILE":"3101563","RA_OF_ASC_NODE":"52.8849","PERIOD":"95.592","MEAN_ELEMENT_THEORY":"SGP4","ARG_OF_PERICENTER":"100.9173","OBJECT_NAME":"STARLINK-1677","NORAD_CAT_ID":"46576","TIME_SYSTEM":"UTC","OBJECT_TYPE":"PAYLOAD","APOAPSIS":"548.549","CENTER_NAME":"EARTH","PERIAPSIS":"545.883","BSTAR":"0.00006686500000","INCLINATION":"53.0547","MEAN_MOTION":"15.06399133","SEMIMAJOR_AXIS":"6925.351","TLE_LINE1":"1 46576U 20070AW  21234.86059641  .00000714  00000-0  66865-4 0  9995","DECAY_DATE":null,"MEAN_ANOMALY":"259.2033","REV_AT_EPOCH":"4954","COUNTRY_CODE":"US","EPHEMERIS_TYPE":"0","MEAN_MOTION_DOT":"0.00000714","TLE_LINE2":"2 46576  53.0547  52.8849 0001925 100.9173 259.2033 15.06399133 49544","RCS_SIZE":"LARGE","ELEMENT_SET_NO":"999","OBJECT_ID":"2020-070AW","GP_ID":"183271138"},{"FILE":"3101563","MEAN_MOTION_DDOT":"0.0000000000000","REF_FRAME":"TEME","EPOCH":"2021-08-22T21:21:43.866720","SITE":"AFETR","LAUNCH_DATE":"2020-10-06","ECCENTRICITY":"0.00020060","CLASSIFICATION_TYPE":"U","APOAPSIS":"548.619","OBJECT_TYPE":"PAYLOAD","TIME_SYSTEM":"UTC","NORAD_CAT_ID":"46577","OBJECT_NAME":"STARLINK-1682","ARG_OF_PERICENTER":"98.1648","MEAN_ELEMENT_THEORY":"SGP4","PERIOD":"95.592","RA_OF_ASC_NODE":"52.7526","TLE_LINE1":"1 46577U 20070AX  21234.89009105 -.00001011  00000-0 -48941-4 0  9997","SEMIMAJOR_AXIS":"6925.364","MEAN_MOTION":"15.06394858","BSTAR":"-0.00004894100000","PERIAPSIS":"545.840","INCLINATION":"53.0548","CENTER_NAME":"EARTH","GP_ID":"183271388","OBJECT_ID":"2020-070AX","ELEMENT_SET_NO":"999","RCS_SIZE":"LARGE","TLE_LINE2":"2 46577  53.0548  52.7526 0002006  98.1648 261.9569 15.06394858 49546","MEAN_MOTION_DOT":"-0.00001011","COUNTRY_CODE":"US","EPHEMERIS_TYPE":"0","REV_AT_EPOCH":"4954","MEAN_ANOMALY":"261.9569","DECAY_DATE":null},{"CENTER_NAME":"EARTH","BSTAR":"0.00006962400000","PERIAPSIS":"545.974","INCLINATION":"53.0554","MEAN_MOTION":"15.06396940","SEMIMAJOR_AXIS":"6925.358","TLE_LINE1":"1 46578U 20070AY  21234.86656803  .00000755  00000-0  69624-4 0  9991","DECAY_DATE":null,"REV_AT_EPOCH":"4975","MEAN_ANOMALY":"254.3462","COUNTRY_CODE":"US","EPHEMERIS_TYPE":"0","MEAN_MOTION_DOT":"0.00000755","TLE_LINE2":"2 46578  53.0554  37.8644 0001804 105.7726 254.3462 15.06396940 49751","ELEMENT_SET_NO":"999","RCS_SIZE":"LARGE","GP_ID":"183272640","OBJECT_ID":"2020-070AY","CLASSIFICATION_TYPE":"U","LAUNCH_DATE":"2020-10-06","ECCENTRICITY":"0.00018040","EPOCH":"2021-08-22T20:47:51.477792","SITE":"AFETR","REF_FRAME":"TEME","MEAN_MOTION_DDOT":"0.0000000000000","FILE":"3101563","RA_OF_ASC_NODE":"37.8644","MEAN_ELEMENT_THEORY":"SGP4","PERIOD":"95.592","ARG_OF_PERICENTER":"105.7726","OBJECT_NAME":"STARLINK-1683","NORAD_CAT_ID":"46578","TIME_SYSTEM":"UTC","OBJECT_TYPE":"PAYLOAD","APOAPSIS":"548.472"},{"DECAY_DATE":null,"COUNTRY_CODE":"US","EPHEMERIS_TYPE":"0","REV_AT_EPOCH":"4954","MEAN_ANOMALY":"271.3825","RCS_SIZE":"LARGE","ELEMENT_SET_NO":"999","MEAN_MOTION_DOT":"0.00000200","TLE_LINE2":"2 46579  53.0569  52.8282 0001801  88.7370 271.3825 15.06401608 49542","GP_ID":"183272891","OBJECT_ID":"2020-070AZ","CENTER_NAME":"EARTH","INCLINATION":"53.0569","PERIAPSIS":"545.961","BSTAR":"0.00003236000000","SEMIMAJOR_AXIS":"6925.344","MEAN_MOTION":"15.06401608","TLE_LINE1":"1 46579U 20070AZ  21234.87534357  .00000200  00000-0  32360-4 0  9994","MEAN_ELEMENT_THEORY":"SGP4","PERIOD":"95.592","RA_OF_ASC_NODE":"52.8282","OBJECT_NAME":"STARLINK-1705","NORAD_CAT_ID":"46579","ARG_OF_PERICENTER":"88.7370","APOAPSIS":"548.456","OBJECT_TYPE":"PAYLOAD","TIME_SYSTEM":"UTC","LAUNCH_DATE":"2020-10-06","ECCENTRICITY":"0.00018010","CLASSIFICATION_TYPE":"U","MEAN_MOTION_DDOT":"0.0000000000000","REF_FRAME":"TEME","EPOCH":"2021-08-22T21:00:29.684448","SITE":"AFETR","FILE":"3101563"}];
